JILIN-1 GAOFEN 3G       
1 46459U 20065F   26095.28355391  .00068776  00000+0  80721-3 0  9993
2 46459  97.2388 150.0470 0009581 322.0556  38.0026 15.61211919308534
JILIN-1 GAOFEN 3H       
1 46460U 20065G   26095.20147252  .00059843  00000+0  75839-3 0  9991
2 46460  97.2335 146.6287 0006484 239.9942 120.0672 15.59257878308483
JILIN-1 GAOFEN 3J       
1 46462U 20065J   26095.28312023  .00280080  00000+0  11073-2 0  9999
2 46462  97.2306 153.4788 0001261 200.8462 159.2758 15.86080486308878
HAIYANG-2C              
1 46469U 20066A   26095.29262363 -.00000266  00000+0 -16812-3 0  9994
2 46469  65.9992  36.7732 0011717 246.2721 113.7119 13.83371356279416
HJ-2A                   
1 46478U 20067A   26095.24827008  .00001626  00000+0  24075-3 0  9992
2 46478  97.8845 175.3370 0004291 125.7330 234.4280 14.76475570297495
HJ-2B                   
1 46479U 20067B   26095.28468476  .00001288  00000+0  19194-3 0  9997
2 46479  97.8907 176.3392 0001691  81.9915 278.1487 14.76529196297503
GONETS-M 17             
1 46486U 20068A   26095.27813396 -.00000108  00000+0 -84856-3 0  9999
2 46486  82.5022  32.8499 0021792 192.0150 168.0413 12.42869705250108
GONETS-M 18             
1 46487U 20068B   26095.24177087  .00000050  00000+0  28893-3 0  9990
2 46487  82.4977  32.0183 0019135 187.9909 172.0869 12.42869332250085
GONETS-M 19             
1 46488U 20068C   26095.29884352 -.00000015  00000+0 -18107-3 0  9996
2 46488  82.5001  32.4198 0012647 202.4009 157.6520 12.42889476250196
DEKART                  
1 46493U 20068H   26095.26662351  .00017229  00000+0  49789-3 0  9995
2 46493  97.8774  99.4072 0009591 171.8006 188.3395 15.35678148304572
NORBI                   
1 46494U 20068J   26095.25396918  .00029219  00000+0  61054-3 0  9999
2 46494  97.8680 104.9579 0008294 148.1520 212.0230 15.45431711304937
SALSAT                  
1 46495U 20068K   26095.25293326  .00010667  00000+0  38421-3 0  9998
2 46495  97.8868  93.9405 0009584 187.7921 172.3170 15.28731219304217
ICEYE-X6                
1 46497U 20068M   26095.22283652  .00006548  00000+0  47691-3 0  9990
2 46497  98.0974  85.4399 0006652 352.3437   7.7685 15.04115477302264
NETSAT-4                
1 46504U 20068U   26094.56652426  .00024658  00000+0  58947-3 0  9992
2 46504  97.8634  97.0289 0004748 202.4936 157.6102 15.41478677304427
NETSAT-3                
1 46505U 20068V   26095.22862883  .00023674  00000+0  58997-3 0  9999
2 46505  97.8681  96.0584 0004014 218.9146 141.1810 15.40228598304448
NETSAT-1                
1 46506U 20068W   26094.93419451  .00016946  00000+0  53501-3 0  9996
2 46506  97.8755  90.8995 0003179 257.6328 102.4557 15.32917538304079
