[{"OBJECT_NAME":"JILIN-1 GAOFEN 3G","OBJECT_ID":"2020-065F","EPOCH":"2026-04-05T06:48:19.057824","MEAN_MOTION":15.61211919,"ECCENTRICITY":0.0009581,"INCLINATION":97.2388,"RA_OF_ASC_NODE":150.047,"ARG_OF_PERICENTER":322.0556,"MEAN_ANOMALY":38.0026,"EPHEMERIS_TYPE":0,"CLASSIFICATION_TYPE":"U","NORAD_CAT_ID":46459,"ELEMENT_SET_NO":999,"REV_AT_EPOCH":30853,"BSTAR":0.00080721072,"MEAN_MOTION_DOT":0.00068776,"MEAN_MOTION_DDOT":0},{"OBJECT_NAME":"JILIN-1 GAOFEN 3H","OBJECT_ID":"2020-065G","EPOCH":"2026-04-05T04:50:07.225728","MEAN_MOTION":15.59257878,"ECCENTRICITY":0.00064847,"INCLINATION":97.2335,"RA_OF_ASC_NODE":146.6287,"ARG_OF_PERICENTER":239.9942,"MEAN_ANOMALY":120.0672,"EPHEMERIS_TYPE":0,"CLASSIFICATION_TYPE":"U","NORAD_CAT_ID":46460,"ELEMENT_SET_NO":999,"REV_AT_EPOCH":30848,"BSTAR":0.00075839303,"MEAN_MOTION_DOT":0.00059843,"MEAN_MOTION_DDOT":0},{"OBJECT_NAME":"JILIN-1 GAOFEN 3J","OBJECT_ID":"2020-065J","EPOCH":"2026-04-05T06:47:41.587872","MEAN_MOTION":15.86080486,"ECCENTRICITY":0.00012618,"INCLINATION":97.2306,"RA_OF_ASC_NODE":153.4788,"ARG_OF_PERICENTER":200.8462,"MEAN_ANOMALY":159.2758,"EPHEMERIS_TYPE":0,"CLASSIFICATION_TYPE":"U","NORAD_CAT_ID":46462,"ELEMENT_SET_NO":999,"REV_AT_EPOCH":30887,"BSTAR":0.0011072721,"MEAN_MOTION_DOT":0.0028008,"MEAN_MOTION_DDOT":0},{"OBJECT_NAME":"HAIYANG-2C","OBJECT_ID":"2020-066A","EPOCH":"2026-04-05T07:01:22.681632","MEAN_MOTION":13.83371356,"ECCENTRICITY":0.00117172,"INCLINATION":65.9992,"RA_OF_ASC_NODE":36.7732,"ARG_OF_PERICENTER":246.2721,"MEAN_ANOMALY":113.7119,"EPHEMERIS_TYPE":0,"CLASSIFICATION_TYPE":"U","NORAD_CAT_ID":46469,"ELEMENT_SET_NO":999,"REV_AT_EPOCH":27941,"BSTAR":-0.0001681199,"MEAN_MOTION_DOT":-2.66e-6,"MEAN_MOTION_DDOT":0},{"OBJECT_NAME":"HJ-2A","OBJECT_ID":"2020-067A","EPOCH":"2026-04-05T05:57:30.534912","MEAN_MOTION":14.7647557,"ECCENTRICITY":0.00042915,"INCLINATION":97.8845,"RA_OF_ASC_NODE":175.337,"ARG_OF_PERICENTER":125.733,"MEAN_ANOMALY":234.428,"EPHEMERIS_TYPE":0,"CLASSIFICATION_TYPE":"U","NORAD_CAT_ID":46478,"ELEMENT_SET_NO":999,"REV_AT_EPOCH":29749,"BSTAR":0.00024075311,"MEAN_MOTION_DOT":1.626e-5,"MEAN_MOTION_DDOT":0},{"OBJECT_NAME":"HJ-2B","OBJECT_ID":"2020-067B","EPOCH":"2026-04-05T06:49:56.763264","MEAN_MOTION":14.76529196,"ECCENTRICITY":0.00016917,"INCLINATION":97.8907,"RA_OF_ASC_NODE":176.3392,"ARG_OF_PERICENTER":81.9915,"MEAN_ANOMALY":278.1487,"EPHEMERIS_TYPE":0,"CLASSIFICATION_TYPE":"U","NORAD_CAT_ID":46479,"ELEMENT_SET_NO":999,"REV_AT_EPOCH":29750,"BSTAR":0.00019193769,"MEAN_MOTION_DOT":1.288e-5,"MEAN_MOTION_DDOT":0},{"OBJECT_NAME":"GONETS-M 17","OBJECT_ID":"2020-068A","EPOCH":"2026-04-05T06:40:30.774144","MEAN_MOTION":12.42869705,"ECCENTRICITY":0.0021792,"INCLINATION":82.5022,"RA_OF_ASC_NODE":32.8499,"ARG_OF_PERICENTER":192.015,"MEAN_ANOMALY":168.0413,"EPHEMERIS_TYPE":0,"CLASSIFICATION_TYPE":"U","NORAD_CAT_ID":46486,"ELEMENT_SET_NO":999,"REV_AT_EPOCH":25010,"BSTAR":-0.00084855753,"MEAN_MOTION_DOT":-1.08e-6,"MEAN_MOTION_DDOT":0},{"OBJECT_NAME":"GONETS-M 18","OBJECT_ID":"2020-068B","EPOCH":"2026-04-05T05:48:09.003168","MEAN_MOTION":12.42869332,"ECCENTRICITY":0.00191358,"INCLINATION":82.4977,"RA_OF_ASC_NODE":32.0183,"ARG_OF_PERICENTER":187.9909,"MEAN_ANOMALY":172.0869,"EPHEMERIS_TYPE":0,"CLASSIFICATION_TYPE":"U","NORAD_CAT_ID":46487,"ELEMENT_SET_NO":999,"REV_AT_EPOCH":25008,"BSTAR":0.00028892862,"MEAN_MOTION_DOT":5.0e-7,"MEAN_MOTION_DDOT":0},{"OBJECT_NAME":"GONETS-M 19","OBJECT_ID":"2020-068C","EPOCH":"2026-04-05T07:10:20.080128","MEAN_MOTION":12.42889476,"ECCENTRICITY":0.00126473,"INCLINATION":82.5001,"RA_OF_ASC_NODE":32.4198,"ARG_OF_PERICENTER":202.4009,"MEAN_ANOMALY":157.652,"EPHEMERIS_TYPE":0,"CLASSIFICATION_TYPE":"U","NORAD_CAT_ID":46488,"ELEMENT_SET_NO":999,"REV_AT_EPOCH":25019,"BSTAR":-0.00018107387,"MEAN_MOTION_DOT":-1.5e-7,"MEAN_MOTION_DDOT":0},{"OBJECT_NAME":"DEKART","OBJECT_ID":"2020-068H","EPOCH":"2026-04-05T06:23:56.271264","MEAN_MOTION":15.35678148,"ECCENTRICITY":0.00095911,"INCLINATION":97.8774,"RA_OF_ASC_NODE":99.4072,"ARG_OF_PERICENTER":171.8006,"MEAN_ANOMALY":188.3395,"EPHEMERIS_TYPE":0,"CLASSIFICATION_TYPE":"U","NORAD_CAT_ID":46493,"ELEMENT_SET_NO":999,"REV_AT_EPOCH":30457,"BSTAR":0.00049789265,"MEAN_MOTION_DOT":0.00017229,"MEAN_MOTION_DDOT":0},{"OBJECT_NAME":"NORBI","OBJECT_ID":"2020-068J","EPOCH":"2026-04-05T06:05:42.937152","MEAN_MOTION":15.45431711,"ECCENTRICITY":0.00082948,"INCLINATION":97.868,"RA_OF_ASC_NODE":104.9579,"ARG_OF_PERICENTER":148.152,"MEAN_ANOMALY":212.023,"EPHEMERIS_TYPE":0,"CLASSIFICATION_TYPE":"U","NORAD_CAT_ID":46494,"ELEMENT_SET_NO":999,"REV_AT_EPOCH":30493,"BSTAR":0.00061053674,"MEAN_MOTION_DOT":0.00029219,"MEAN_MOTION_DDOT":0},{"OBJECT_NAME":"SALSAT","OBJECT_ID":"2020-068K","EPOCH":"2026-04-05T06:04:13.433664","MEAN_MOTION":15.28731219,"ECCENTRICITY":0.00095847,"INCLINATION":97.8868,"RA_OF_ASC_NODE":93.9405,"ARG_OF_PERICENTER":187.7921,"MEAN_ANOMALY":172.317,"EPHEMERIS_TYPE":0,"CLASSIFICATION_TYPE":"U","NORAD_CAT_ID":46495,"ELEMENT_SET_NO":999,"REV_AT_EPOCH":30421,"BSTAR":0.00038420903,"MEAN_MOTION_DOT":0.00010667,"MEAN_MOTION_DDOT":0},{"OBJECT_NAME":"ICEYE-X6","OBJECT_ID":"2020-068M","EPOCH":"2026-04-05T05:20:53.075328","MEAN_MOTION":15.04115477,"ECCENTRICITY":0.0006652,"INCLINATION":98.0974,"RA_OF_ASC_NODE":85.4399,"ARG_OF_PERICENTER":352.3437,"MEAN_ANOMALY":7.7685,"EPHEMERIS_TYPE":0,"CLASSIFICATION_TYPE":"U","NORAD_CAT_ID":46497,"ELEMENT_SET_NO":999,"REV_AT_EPOCH":30226,"BSTAR":0.00047691032,"MEAN_MOTION_DOT":6.548e-5,"MEAN_MOTION_DDOT":0},{"OBJECT_NAME":"NETSAT-4","OBJECT_ID":"2020-068U","EPOCH":"2026-04-04T13:35:47.696064","MEAN_MOTION":15.41478677,"ECCENTRICITY":0.0004748,"INCLINATION":97.8634,"RA_OF_ASC_NODE":97.0289,"ARG_OF_PERICENTER":202.4936,"MEAN_ANOMALY":157.6102,"EPHEMERIS_TYPE":0,"CLASSIFICATION_TYPE":"U","NORAD_CAT_ID":46504,"ELEMENT_SET_NO":999,"REV_AT_EPOCH":30442,"BSTAR":0.00058947,"MEAN_MOTION_DOT":0.00024658,"MEAN_MOTION_DDOT":0},{"OBJECT_NAME":"NETSAT-3","OBJECT_ID":"2020-068V","EPOCH":"2026-04-05T05:29:13.530912","MEAN_MOTION":15.40228598,"ECCENTRICITY":0.00040149,"INCLINATION":97.8681,"RA_OF_ASC_NODE":96.0584,"ARG_OF_PERICENTER":218.9146,"MEAN_ANOMALY":141.181,"EPHEMERIS_TYPE":0,"CLASSIFICATION_TYPE":"U","NORAD_CAT_ID":46505,"ELEMENT_SET_NO":999,"REV_AT_EPOCH":30444,"BSTAR":0.0005899704,"MEAN_MOTION_DOT":0.00023674,"MEAN_MOTION_DDOT":0},{"OBJECT_NAME":"NETSAT-1","OBJECT_ID":"2020-068W","EPOCH":"2026-04-04T22:25:14.405664","MEAN_MOTION":15.32917538,"ECCENTRICITY":0.00031792,"INCLINATION":97.8755,"RA_OF_ASC_NODE":90.8995,"ARG_OF_PERICENTER":257.6328,"MEAN_ANOMALY":102.4557,"EPHEMERIS_TYPE":0,"CLASSIFICATION_TYPE":"U","NORAD_CAT_ID":46506,"ELEMENT_SET_NO":999,"REV_AT_EPOCH":30407,"BSTAR":0.00053501102,"MEAN_MOTION_DOT":0.00016946,"MEAN_MOTION_DDOT":0}]
